0 OPS 9342 (IDSCS 21)
1 03285U 68050B   13283.61137971  .00000000  00000-0  10000-3 0  9555
2 03285 001.8049 310.9562 0018776 155.2765 204.2762 01.07817136178247
0 OPS 9342 (IDSCS 21)
1 03285U 68050B   13283.61469011 -.00000141  00000-0  10000-3 0  9555
2 03285 001.8068 312.2537 0018530 154.5791 204.9557 01.07819851178249
0 OPS 9342 (IDSCS 21)
1 03285U 68050B   13286.39697049 -.00000081  00000-0  10000-3 0  9561
2 03285 001.8021 312.2612 0018610 154.8348 204.6552 01.07818445178275
0 OPS 9342 (IDSCS 21)
1 03285U 68050B   13289.17917368 -.00000122  00000-0  10000-3 0  9576
2 03285 001.7990 312.2627 0018579 154.9616 204.4548 01.07819279178301
0 OPS 9342 (IDSCS 21)
1 03285U 68050B   13290.10652312 -.00000136  00000-0  10000-3 0  9582
2 03285 001.7978 312.2690 0018339 155.5762 203.7886 01.07819540178319
0 OPS 9342 (IDSCS 21)
1 03285U 68050B   13290.10783492  .00000000  00000-0  10000-3 0  9596
2 03285 001.7982 312.7504 0018216 155.7178 203.6760 01.07816707178312
0 OPS 9342 (IDSCS 21)
1 03285U 68050B   13292.88887500 -.00000088  00000-0  10000-3 0  9595
2 03285 001.7939 312.2172 0018281 155.7678 203.6406 01.07818616178348
0 OPS 9342 (IDSCS 21)
1 03285U 68050B   13295.67145609 -.00000108  00000-0  10000-3 0  9607
2 03285 001.7911 312.2200 0018258 155.8573 203.6247 01.07819176178377
